0 SL-8 R/B
1 15506U 85011B   13281.79935997  .00000095  00000-0  82062-4 0   385
2 15506 082.9215 224.8981 0035937 206.6886 213.3028 13.76013646440030
0 SL-8 R/B
1 15506U 85011B   13283.83445744  .00000075  00000-0  61901-4 0   396
2 15506 082.9217 223.3833 0036043 200.8931 214.5728 13.76014374440318
0 SL-8 R/B
1 15506U 85011B   13285.94545346  .00000067  00000-0  53259-4 0   409
2 15506 082.9222 221.8122 0036175 194.9303 231.7774 13.76014506440601
0 SL-8 R/B
1 15506U 85011B   13288.13950346  .00000123  00000-0  11026-3 0   412
2 15506 082.9225 220.1793 0036346 188.8824 300.2589 13.76014685440907
0 SL-8 R/B
1 15506U 85011B   13290.39581049  .00000114  00000-0  10124-3 0   422
2 15506 082.9225 218.5004 0036511 182.6200 317.1811 13.76014887441211
0 SL-8 R/B
1 15506U 85011B   13292.48683891  .00000103  00000-0  90382-4 0   436
2 15506 082.9224 216.9446 0036652 176.7670 235.4239 13.76015131441504
0 SL-8 R/B
1 15506U 85011B   13294.82398469  .00000095  00000-0  82197-4 0   446
2 15506 082.9224 215.2055 0036794 170.2439 292.8312 13.76015778441822
